CCSDS_OMM_VERS = 2.0
CREATION_DATE  = 
ORIGINATOR     = 

OBJECT_NAME    = SL-16 R/B
OBJECT_ID      = 1998-043G
CENTER_NAME    = EARTH
REF_FRAME      = TEME
TIME_SYSTEM    = UTC
MEAN_ELEMENT_THEORY = SGP/SGP4

EPOCH          = 2025-12-23T14:29:22.030944
MEAN_MOTION    = 14.26027780
ECCENTRICITY   = .00089564
INCLINATION    = 98.8143
RA_OF_ASC_NODE = 305.4834
ARG_OF_PERICENTER = 231.6099
MEAN_ANOMALY   = 128.4277

EPHEMERIS_TYPE = 0
CLASSIFICATION_TYPE = U
NORAD_CAT_ID   = 25400
ELEMENT_SET_NO = 999
REV_AT_EPOCH   = 42814
BSTAR          = .370514E-4
MEAN_MOTION_DOT = .43E-6
MEAN_MOTION_DDOT = 0

CCSDS_OMM_VERS = 2.0
CREATION_DATE  = 
ORIGINATOR     = 

OBJECT_NAME    = SL-16 R/B
OBJECT_ID      = 1998-045B
CENTER_NAME    = EARTH
REF_FRAME      = TEME
TIME_SYSTEM    = UTC
MEAN_ELEMENT_THEORY = SGP/SGP4

EPOCH          = 2025-12-24T03:16:56.615232
MEAN_MOTION    = 14.16177389
ECCENTRICITY   = .0006288
INCLINATION    = 71.0119
RA_OF_ASC_NODE = 340.4583
ARG_OF_PERICENTER = 157.7072
MEAN_ANOMALY   = 202.4326

EPHEMERIS_TYPE = 0
CLASSIFICATION_TYPE = U
NORAD_CAT_ID   = 25407
ELEMENT_SET_NO = 999
REV_AT_EPOCH   = 41640
BSTAR          = .17359E-3
MEAN_MOTION_DOT = .296E-5
MEAN_MOTION_DDOT = 0

CCSDS_OMM_VERS = 2.0
CREATION_DATE  = 
ORIGINATOR     = 

OBJECT_NAME    = ISS (ZARYA)
OBJECT_ID      = 1998-067A
CENTER_NAME    = EARTH
REF_FRAME      = TEME
TIME_SYSTEM    = UTC
MEAN_ELEMENT_THEORY = SGP/SGP4

EPOCH          = 2025-12-23T18:17:18.636000
MEAN_MOTION    = 15.49761422
ECCENTRICITY   = .0003172
INCLINATION    = 51.6321
RA_OF_ASC_NODE = 87.8933
ARG_OF_PERICENTER = 292.1344
MEAN_ANOMALY   = 67.9308

EPHEMERIS_TYPE = 0
CLASSIFICATION_TYPE = U
NORAD_CAT_ID   = 25544
ELEMENT_SET_NO = 999
REV_AT_EPOCH   = 54456
BSTAR          = .20967E-3
MEAN_MOTION_DOT = .11429E-3
MEAN_MOTION_DDOT = 0

CCSDS_OMM_VERS = 2.0
CREATION_DATE  = 
ORIGINATOR     = 

OBJECT_NAME    = CZ-4B R/B
OBJECT_ID      = 1999-025C
CENTER_NAME    = EARTH
REF_FRAME      = TEME
TIME_SYSTEM    = UTC
MEAN_ELEMENT_THEORY = SGP/SGP4

EPOCH          = 2025-12-24T02:33:08.612352
MEAN_MOTION    = 14.18246430
ECCENTRICITY   = .0036783
INCLINATION    = 98.6753
RA_OF_ASC_NODE = 39.1314
ARG_OF_PERICENTER = 200.7656
MEAN_ANOMALY   = 213.7687

EPHEMERIS_TYPE = 0
CLASSIFICATION_TYPE = U
NORAD_CAT_ID   = 25732
ELEMENT_SET_NO = 999
REV_AT_EPOCH   = 37745
BSTAR          = .58301E-4
MEAN_MOTION_DOT = .78E-6
MEAN_MOTION_DDOT = 0

CCSDS_OMM_VERS = 2.0
CREATION_DATE  = 
ORIGINATOR     = 

OBJECT_NAME    = OKEAN-O
OBJECT_ID      = 1999-039A
CENTER_NAME    = EARTH
REF_FRAME      = TEME
TIME_SYSTEM    = UTC
MEAN_ELEMENT_THEORY = SGP/SGP4

EPOCH          = 2025-12-24T03:30:58.913280
MEAN_MOTION    = 14.80180500
ECCENTRICITY   = .0001088
INCLINATION    = 97.9586
RA_OF_ASC_NODE = 53.7488
ARG_OF_PERICENTER = 113.8879
MEAN_ANOMALY   = 246.2447

EPHEMERIS_TYPE = 0
CLASSIFICATION_TYPE = U
NORAD_CAT_ID   = 25860
ELEMENT_SET_NO = 999
REV_AT_EPOCH   = 42321
BSTAR          = .1061E-3
MEAN_MOTION_DOT = .754E-5
MEAN_MOTION_DDOT = 0

CCSDS_OMM_VERS = 2.0
CREATION_DATE  = 
ORIGINATOR     = 

OBJECT_NAME    = SL-16 R/B
OBJECT_ID      = 1999-039B
CENTER_NAME    = EARTH
REF_FRAME      = TEME
TIME_SYSTEM    = UTC
MEAN_ELEMENT_THEORY = SGP/SGP4

EPOCH          = 2025-12-24T03:08:08.814048
MEAN_MOTION    = 14.81602191
ECCENTRICITY   = .001574
INCLINATION    = 98.0110
RA_OF_ASC_NODE = 52.2819
ARG_OF_PERICENTER = 138.9824
MEAN_ANOMALY   = 221.2575

EPHEMERIS_TYPE = 0
CLASSIFICATION_TYPE = U
NORAD_CAT_ID   = 25861
ELEMENT_SET_NO = 999
REV_AT_EPOCH   = 42567
BSTAR          = .84732E-4
MEAN_MOTION_DOT = .613E-5
MEAN_MOTION_DDOT = 0

CCSDS_OMM_VERS = 2.0
CREATION_DATE  = 
ORIGINATOR     = 

OBJECT_NAME    = DELTA 2 R/B
OBJECT_ID      = 1999-041E
CENTER_NAME    = EARTH
REF_FRAME      = TEME
TIME_SYSTEM    = UTC
MEAN_ELEMENT_THEORY = SGP/SGP4

EPOCH          = 2025-12-24T01:01:57.856800
MEAN_MOTION    = 14.11429701
ECCENTRICITY   = .0504455
INCLINATION    = 51.7605
RA_OF_ASC_NODE = 243.3237
ARG_OF_PERICENTER = 125.0781
MEAN_ANOMALY   = 239.8540

EPHEMERIS_TYPE = 0
CLASSIFICATION_TYPE = U
NORAD_CAT_ID   = 25876
ELEMENT_SET_NO = 999
REV_AT_EPOCH   = 35234
BSTAR          = .19439E-3
MEAN_MOTION_DOT = .961E-5
MEAN_MOTION_DDOT = 0

CCSDS_OMM_VERS = 2.0
CREATION_DATE  = 
ORIGINATOR     = 

OBJECT_NAME    = HELIOS 1B
OBJECT_ID      = 1999-064A
CENTER_NAME    = EARTH
REF_FRAME      = TEME
TIME_SYSTEM    = UTC
MEAN_ELEMENT_THEORY = SGP/SGP4

EPOCH          = 2025-12-23T23:18:49.500864
MEAN_MOTION    = 14.87324230
ECCENTRICITY   = .0001058
INCLINATION    = 98.1755
RA_OF_ASC_NODE = 252.9702
ARG_OF_PERICENTER = 31.3998
MEAN_ANOMALY   = 328.7280

EPHEMERIS_TYPE = 0
CLASSIFICATION_TYPE = U
NORAD_CAT_ID   = 25977
ELEMENT_SET_NO = 999
REV_AT_EPOCH   = 67400
BSTAR          = .2047E-3
MEAN_MOTION_DOT = .1789E-4
MEAN_MOTION_DDOT = 0

CCSDS_OMM_VERS = 2.0
CREATION_DATE  = 
ORIGINATOR     = 

OBJECT_NAME    = TERRA
OBJECT_ID      = 1999-068A
CENTER_NAME    = EARTH
REF_FRAME      = TEME
TIME_SYSTEM    = UTC
MEAN_ELEMENT_THEORY = SGP/SGP4

EPOCH          = 2025-12-24T02:28:24.140352
MEAN_MOTION    = 14.60914122
ECCENTRICITY   = .0003449
INCLINATION    = 97.9732
RA_OF_ASC_NODE = 49.3697
ARG_OF_PERICENTER = 72.0027
MEAN_ANOMALY   = 345.6591

EPHEMERIS_TYPE = 0
CLASSIFICATION_TYPE = U
NORAD_CAT_ID   = 25994
ELEMENT_SET_NO = 999
REV_AT_EPOCH   = 38404
BSTAR          = .10478E-3
MEAN_MOTION_DOT = .468E-5
MEAN_MOTION_DDOT = 0

CCSDS_OMM_VERS = 2.0
CREATION_DATE  = 
ORIGINATOR     = 

OBJECT_NAME    = SL-16 R/B
OBJECT_ID      = 2000-006B
CENTER_NAME    = EARTH
REF_FRAME      = TEME
TIME_SYSTEM    = UTC
MEAN_ELEMENT_THEORY = SGP/SGP4

EPOCH          = 2025-12-24T03:10:51.335040
MEAN_MOTION    = 14.15808565
ECCENTRICITY   = .0018585
INCLINATION    = 71.0014
RA_OF_ASC_NODE = 256.7034
ARG_OF_PERICENTER = 293.1968
MEAN_ANOMALY   = 66.7197

EPHEMERIS_TYPE = 0
CLASSIFICATION_TYPE = U
NORAD_CAT_ID   = 26070
ELEMENT_SET_NO = 999
REV_AT_EPOCH   = 33786
BSTAR          = .65565E-4
MEAN_MOTION_DOT = .81E-6
MEAN_MOTION_DDOT = 0

CCSDS_OMM_VERS = 2.0
CREATION_DATE  = 
ORIGINATOR     = 

OBJECT_NAME    = TITAN 4B R/B
OBJECT_ID      = 2000-047B
CENTER_NAME    = EARTH
REF_FRAME      = TEME
TIME_SYSTEM    = UTC
MEAN_ELEMENT_THEORY = SGP/SGP4

EPOCH          = 2025-12-24T01:53:21.841728
MEAN_MOTION    = 15.08858763
ECCENTRICITY   = .0038113
INCLINATION    = 67.9890
RA_OF_ASC_NODE = 253.0086
ARG_OF_PERICENTER = 130.7340
MEAN_ANOMALY   = 229.7129

EPHEMERIS_TYPE = 0
CLASSIFICATION_TYPE = U
NORAD_CAT_ID   = 26474
ELEMENT_SET_NO = 999
REV_AT_EPOCH   = 38150
BSTAR          = .23882E-3
MEAN_MOTION_DOT = .3699E-4
MEAN_MOTION_DDOT = 0

CCSDS_OMM_VERS = 2.0
CREATION_DATE  = 
ORIGINATOR     = 

OBJECT_NAME    = ENVISAT
OBJECT_ID      = 2002-009A
CENTER_NAME    = EARTH
REF_FRAME      = TEME
TIME_SYSTEM    = UTC
MEAN_ELEMENT_THEORY = SGP/SGP4

EPOCH          = 2025-12-18T22:44:27.718656
MEAN_MOTION    = 14.39001403
ECCENTRICITY   = .0001126
INCLINATION    = 98.3609
RA_OF_ASC_NODE = 303.5309
ARG_OF_PERICENTER = 84.8976
MEAN_ANOMALY   = 298.2993

EPHEMERIS_TYPE = 0
CLASSIFICATION_TYPE = U
NORAD_CAT_ID   = 27386
ELEMENT_SET_NO = 999
REV_AT_EPOCH   = 24756
BSTAR          = .39999337E-4
MEAN_MOTION_DOT = .81E-6
MEAN_MOTION_DDOT = 0

