SL-16 R/B               
1 25400U 98043G   25357.60372721  .00000043  00000+0  37051-4 0  9991
2 25400  98.8143 305.4834 0008956 231.6099 128.4277 14.26027780428148
SL-16 R/B               
1 25407U 98045B   25358.13676638  .00000296  00000+0  17359-3 0  9991
2 25407  71.0119 340.4583 0006288 157.7072 202.4326 14.16177389416400
ISS (ZARYA)             
1 25544U 98067A   25357.76202125  .00011429  00000+0  20967-3 0  9990
2 25544  51.6321  87.8933 0003172 292.1344  67.9308 15.49761422544564
CZ-4B R/B               
1 25732U 99025C   25358.10634968  .00000078  00000+0  58301-4 0  9999
2 25732  98.6753  39.1314 0036783 200.7656 213.7687 14.18246430377456
OKEAN-O                 
1 25860U 99039A   25358.14651520  .00000754  00000+0  10610-3 0  9994
2 25860  97.9586  53.7488 0001088 113.8879 246.2447 14.80180500423214
SL-16 R/B               
1 25861U 99039B   25358.13065757  .00000613  00000+0  84732-4 0  9996
2 25861  98.0110  52.2819 0015740 138.9824 221.2575 14.81602191425673
DELTA 2 R/B             
1 25876U 99041E   25358.04303075  .00000961  00000+0  19439-3 0  9990
2 25876  51.7605 243.3237 0504455 125.0781 239.8540 14.11429701352343
HELIOS 1B               
1 25977U 99064A   25357.97140626  .00001789  00000+0  20470-3 0  9995
2 25977  98.1755 252.9702 0001058  31.3998 328.7280 14.87324230674002
TERRA                   
1 25994U 99068A   25358.10305718  .00000468  00000+0  10478-3 0  9999
2 25994  97.9732  49.3697 0003449  72.0027 345.6591 14.60914122384046
SL-16 R/B               
1 26070U 00006B   25358.13253860  .00000081  00000+0  65565-4 0  9991
2 26070  71.0014 256.7034 0018585 293.1968  66.7197 14.15808565337868
TITAN 4B R/B            
1 26474U 00047B   25358.07872502  .00003699  00000+0  23882-3 0  9990
2 26474  67.9890 253.0086 0038113 130.7340 229.7129 15.08858763381502
ENVISAT                 
1 27386U 02009A   25352.94754304  .00000081  00000+0  39999-4 0  9991
2 27386  98.3609 303.5309 0001126  84.8976 298.2993 14.39001403247569
